{
  "links" : {
    "next" : "https://api.nasa.gov/neo/rest/v1/feed?start_date=2015-11-16&end_date=2015-11-16&detailed=true&api_key=t0TVs3DtDT2H8Oy2Zy8m2eVrNsAVKAexjcZXUckd",
    "prev" : "https://api.nasa.gov/neo/rest/v1/feed?start_date=2015-11-14&end_date=2015-11-14&detailed=true&api_key=t0TVs3DtDT2H8Oy2Zy8m2eVrNsAVKAexjcZXUckd",
    "self" : "https://api.nasa.gov/neo/rest/v1/feed?start_date=2015-11-15&end_date=2015-11-15&detailed=true&api_key=t0TVs3DtDT2H8Oy2Zy8m2eVrNsAVKAexjcZXUckd"
  },
  "element_count" : 7,
  "near_earth_objects" : {
    "2015-11-15" : [ {
      "links" : {
        "self" : "https://api.nasa.gov/neo/rest/v1/neo/3734615?api_key=t0TVs3DtDT2H8Oy2Zy8m2eVrNsAVKAexjcZXUckd"
      },
      "neo_reference_id" : "3734615",
      "name" : "(2015 VY105)",
      "nasa_jpl_url" : "http://ssd.jpl.nasa.gov/sbdb.cgi?sstr=3734615",
      "absolute_magnitude_h" : 29.0,
      "estimated_diameter" : {
        "kilometers" : {
          "estimated_diameter_min" : 0.0042126461,
          "estimated_diameter_max" : 0.0094197631
        },
        "meters" : {
          "estimated_diameter_min" : 4.2126461056,
          "estimated_diameter_max" : 9.4197630572
        },
        "miles" : {
          "estimated_diameter_min" : 0.0026176161,
          "estimated_diameter_max" : 0.0058531676
        },
        "feet" : {
          "estimated_diameter_min" : 13.821017849,
          "estimated_diameter_max" : 30.9047354285
        }
      },
      "is_potentially_hazardous_asteroid" : false,
      "close_approach_data" : [ {
        "close_approach_date" : "2015-11-15",
        "epoch_date_close_approach" : 1447574400000,
        "relative_velocity" : {
          "kilometers_per_second" : "17.42267093",
          "kilometers_per_hour" : "62721.6153479089",
          "miles_per_hour" : "38972.7726032604"
        },
        "miss_distance" : {
          "astronomical" : "0.0002313233",
          "lunar" : "0.0899847597",
          "kilometers" : "34605.47265625",
          "miles" : "21502.84375"
        },
        "orbiting_body" : "Earth"
      } ],
      "orbital_data" : {
        "orbit_id" : "7",
        "orbit_determination_date" : "2017-04-06 08:30:39",
        "orbit_uncertainty" : "7",
        "minimum_orbit_intersection" : ".000229614",
        "jupiter_tisserand_invariant" : "2.931",
        "epoch_osculation" : "2458000.5",
        "eccentricity" : ".7084596447958754",
        "semi_major_axis" : "2.701943254112778",
        "inclination" : "8.736109204810212",
        "ascending_node_longitude" : "52.13979987008882",
        "orbital_period" : "1622.231247478488",
        "perihelion_distance" : ".7877254960454275",
        "perihelion_argument" : "59.42433042560249",
        "aphelion_distance" : "4.616161012180128",
        "perihelion_time" : "2457379.347875372717",
        "mean_anomaly" : "137.8439511712014",
        "mean_motion" : ".2219165735831839",
        "equinox" : "J2000"
      }
    } ]
  }
}